{
  "type": "FeatureCollection",
  "metadata": {
    "note": "Add points here that aren't in OpenStreetMap yet. Once you've mapped them in OSM (recommended), remove them from here — they'll start showing up automatically via facilities.geojson."
  },
  "features": [
    {
      "type": "Feature",
      "properties": {
        "category": "bench",
        "name": "Example custom bench (not yet in OSM)",
        "description": "Replace or delete this example. Any property you add here shows up in the marker popup automatically — dedicated fields (description, photo, opening_hours) get their own line, everything else appears under \"More details\".",
        "photo": "",
        "material": "wood",
        "backrest": "yes",
        "website": "https://example.com"
      },
      "geometry": { "type": "Point", "coordinates": [8.2712, 49.9915] }
    }
  ]
}
