{
  "type": "FeatureCollection",
  "metadata": {
    "note": "Placeholder sample data. This file is regenerated by scripts/fetch_osm_data.py via the update-data GitHub Action, which overwrites it with a live Overpass API export.",
    "generated": "manual-placeholder"
  },
  "features": [
    {
      "type": "Feature",
      "properties": {
        "category": "amenity=toilets",
        "name": "Sample public toilet",
        "osm_id": "sample-1"
      },
      "geometry": { "type": "Point", "coordinates": [8.2743, 49.9992] }
    },
    {
      "type": "Feature",
      "properties": {
        "category": "amenity=drinking_water",
        "name": "Sample drinking fountain",
        "osm_id": "sample-2"
      },
      "geometry": { "type": "Point", "coordinates": [8.2695, 49.9955] }
    },
    {
      "type": "Feature",
      "properties": {
        "category": "amenity=bench",
        "name": "Sample bench",
        "osm_id": "sample-3"
      },
      "geometry": { "type": "Point", "coordinates": [8.2678, 49.9973] }
    },
    {
      "type": "Feature",
      "properties": {
        "category": "leisure=playground",
        "name": "Sample playground",
        "osm_id": "sample-4"
      },
      "geometry": { "type": "Point", "coordinates": [8.2601, 50.0012] }
    },
    {
      "type": "Feature",
      "properties": {
        "category": "leisure=park",
        "name": "Sample park",
        "osm_id": "sample-5"
      },
      "geometry": { "type": "Point", "coordinates": [8.2560, 49.9938] }
    }
  ]
}
